{
  "name": "MapsTIles",
  "version": "1.1.0",
  "description": "",
  "attribution": "Rendered with <a href=\"https://www.maptiler.com/desktop/\">MapTiler Desktop</a>",
  "type": "baselayer",
  "format": "pbf",
  "minzoom": "4",
  "maxzoom": "16",
  "scale": "1.000000",
  "bounds": [89.99800000, 23.43500000, 90.83800000, 24.00600000],
  "profile": "mercator",
  "vector_layers": [{"id":"water","description":"","minzoom":5, "maxzoom":13,"fields":{"mvt_id":"Number","class":"String"}},{"id":"waterway","description":"","minzoom":5, "maxzoom":13,"fields":{"mvt_id":"Number","name:mt":"String","name:pt":"String","name:az":"String","name:ka":"String","name:rm":"String","name:ko":"String","name:kn":"String","name:ar":"String","name:cs":"String","name_de":"String","name:ro":"String","name:it":"String","name_int":"String","name:ru":"String","name:pl":"String","name:ca":"String","name:lv":"String","name:bg":"String","name:cy":"String","name:fi":"String","name:he":"String","name:da":"String","name:de":"String","name:tr":"String","name:fr":"String","name:mk":"String","name:nonlatin":"String","name:fy":"String","name:be":"String","name:zh":"String","name:sr":"String","name:sl":"String","name:nl":"String","name:ja":"String","name:lt":"String","name:no":"String","name:kk":"String","name:ko_rm":"String","name:ja_rm":"String","name:br":"String","name:bs":"String","name:lb":"String","name:la":"String","name:sk":"String","name:uk":"String","name:hy":"String","name:sv":"String","name_en":"String","name:hu":"String","name:hr":"String","class":"String","name:sq":"String","name:el":"String","name:ga":"String","name:en":"String","name":"String","name:gd":"String","name:ja_kana":"String","name:is":"String","name:th":"String","name:latin":"String","name:sr-Latn":"String","name:et":"String","name:es":"String"}},{"id":"landcover","description":"","minzoom":6, "maxzoom":13,"fields":{"mvt_id":"Number","class":"String","subclass":"String"}},{"id":"landuse","description":"","minzoom":5, "maxzoom":13,"fields":{"mvt_id":"Number","class":"String"}},{"id":"mountain_peak","description":"","minzoom":6, "maxzoom":12,"fields":{"mvt_id":"Number","name:mt":"String","name:pt":"String","name:az":"String","name:ka":"String","name:rm":"String","name:ko":"String","name:kn":"String","name:ar":"String","name:cs":"String","rank":"Number","name_de":"String","name:ro":"String","name:it":"String","name_int":"String","name:lv":"String","name:pl":"String","name:de":"String","name:ca":"String","name:bg":"String","name:cy":"String","name:fi":"String","name:he":"String","name:da":"String","ele":"Number","name:tr":"String","name:fr":"String","name:mk":"String","name:nonlatin":"String","name:fy":"String","name:be":"String","name:zh":"String","name:sl":"String","name:nl":"String","name:ja":"String","name:lt":"String","name:no":"String","name:kk":"String","name:ko_rm":"String","name:ja_rm":"String","name:br":"String","name:bs":"String","name:lb":"String","name:la":"String","name:sk":"String","name:uk":"String","name:hy":"String","name:ru":"String","name:sv":"String","name_en":"String","name:hu":"String","name:hr":"String","name:sr":"String","name:sq":"String","name:el":"String","name:ga":"String","name:en":"String","name":"String","name:gd":"String","ele_ft":"Number","name:ja_kana":"String","name:is":"String","osm_id":"Number","name:th":"String","name:latin":"String","name:sr-Latn":"String","name:et":"String","name:es":"String"}},{"id":"park","description":"","minzoom":7, "maxzoom":11,"fields":{"mvt_id":"Number","class":"String"}},{"id":"boundary","description":"","minzoom":6, "maxzoom":13,"fields":{"mvt_id":"Number","admin_level":"Number","disputed":"Number","maritime":"Number"}},{"id":"aeroway","description":"","minzoom":6, "maxzoom":11,"fields":{"mvt_id":"Number","class":"String"}},{"id":"transportation","description":"","minzoom":5, "maxzoom":15,"fields":{"mvt_id":"Number","brunnel":"String","ramp":"Number","class":"String","service":"String","oneway":"Number"}},{"id":"building","description":"","minzoom":4, "maxzoom":16,"fields":{"mvt_id":"Number","render_min_height":"Number","render_height":"Number"}},{"id":"water_name","description":"","minzoom":5, "maxzoom":13,"fields":{"mvt_id":"Number","name:mt":"String","name:pt":"String","name:az":"String","name:ka":"String","name:rm":"String","name:ko":"String","name:kn":"String","name:ar":"String","name:cs":"String","name_de":"String","name:ro":"String","name:it":"String","name_int":"String","name:ru":"String","name:pl":"String","name:ca":"String","name:lv":"String","name:bg":"String","name:cy":"String","name:fi":"String","name:he":"String","name:da":"String","name:de":"String","name:tr":"String","name:fr":"String","name:mk":"String","name:nonlatin":"String","name:fy":"String","name:be":"String","name:zh":"String","name:sr":"String","name:sl":"String","name:nl":"String","name:ja":"String","name:lt":"String","name:no":"String","name:kk":"String","name:ko_rm":"String","name:ja_rm":"String","name:br":"String","name:bs":"String","name:lb":"String","name:la":"String","name:sk":"String","name:uk":"String","name:hy":"String","name:sv":"String","name_en":"String","name:hu":"String","name:hr":"String","class":"String","name:sq":"String","name:el":"String","name:ga":"String","name:en":"String","name":"String","name:gd":"String","name:ja_kana":"String","name:is":"String","name:th":"String","name:latin":"String","name:sr-Latn":"String","name:et":"String","name:es":"String"}},{"id":"transportation_name","description":"","minzoom":5, "maxzoom":14,"fields":{"mvt_id":"Number","name:mt":"String","name:pt":"String","name:az":"String","name:ka":"String","name:rm":"String","name:ko":"String","name:kn":"String","name:ar":"String","name:cs":"String","name_de":"String","name:ro":"String","name:it":"String","name_int":"String","name:ru":"String","name:pl":"String","name:ca":"String","name:lv":"String","name:bg":"String","name:cy":"String","name:fi":"String","name:he":"String","name:da":"String","name:de":"String","name:tr":"String","name:fr":"String","name:mk":"String","name:nonlatin":"String","name:fy":"String","name:be":"String","name:zh":"String","name:sr":"String","name:sl":"String","name:nl":"String","name:ja":"String","name:lt":"String","name:no":"String","name:kk":"String","name:ko_rm":"String","name:ja_rm":"String","name:br":"String","name:bs":"String","name:lb":"String","name:la":"String","name:sk":"String","name:uk":"String","name:hy":"String","name:sv":"String","name_en":"String","name:hu":"String","name:hr":"String","class":"String","name:sq":"String","network":"String","name:el":"String","name:ga":"String","name:en":"String","name":"String","name:gd":"String","ref":"String","name:ja_kana":"String","ref_length":"Number","name:is":"String","name:th":"String","name:latin":"String","name:sr-Latn":"String","name:et":"String","name:es":"String"}},{"id":"place","description":"","minzoom":5, "maxzoom":13,"fields":{"mvt_id":"Number","name:mt":"String","name:pt":"String","name:az":"String","name:ka":"String","name:rm":"String","name:ko":"String","name:kn":"String","name:ar":"String","name:cs":"String","rank":"Number","name_de":"String","name:ro":"String","name:it":"String","name_int":"String","name:ru":"String","name:pl":"String","name:ca":"String","name:lv":"String","name:bg":"String","name:cy":"String","name:hr":"String","name:fi":"String","name:he":"String","name:da":"String","name:de":"String","name:tr":"String","name:fr":"String","name:mk":"String","name:nonlatin":"String","name:fy":"String","name:be":"String","name:zh":"String","name:sr":"String","name:sl":"String","name:nl":"String","name:ja":"String","name:ko_rm":"String","name:no":"String","name:kk":"String","capital":"Number","name:ja_rm":"String","name:br":"String","name:bs":"String","name:lb":"String","name:la":"String","name:sk":"String","name:uk":"String","name:hy":"String","name:sv":"String","name_en":"String","name:hu":"String","name:lt":"String","class":"String","name:sq":"String","name:el":"String","name:ga":"String","name:en":"String","name":"String","name:gd":"String","name:ja_kana":"String","name:is":"String","name:th":"String","name:latin":"String","name:sr-Latn":"String","name:et":"String","name:es":"String"}},{"id":"housenumber","description":"","minzoom":5, "maxzoom":14,"fields":{"mvt_id":"Number","housenumber":"String"}},{"id":"poi","description":"","minzoom":5, "maxzoom":15,"fields":{"mvt_id":"Number","name:mt":"String","name:pt":"String","name:az":"String","name:ka":"String","name:rm":"String","name:ko":"String","name:kn":"String","name:ar":"String","name:cs":"String","rank":"Number","name_de":"String","name:ro":"String","name:it":"String","name_int":"String","name:ru":"String","name:pl":"String","name:ca":"String","name:lv":"String","name:bg":"String","name:cy":"String","name:fi":"String","name:he":"String","name:da":"String","subclass":"String","name:de":"String","name:tr":"String","name:fr":"String","name:mk":"String","name:nonlatin":"String","name:fy":"String","name:be":"String","name:zh":"String","name:sr":"String","name:sl":"String","name:nl":"String","name:ja":"String","name:lt":"String","name:no":"String","name:kk":"String","name:ko_rm":"String","name:ja_rm":"String","name:br":"String","name:bs":"String","name:lb":"String","name:la":"String","name:sk":"String","name:uk":"String","name:hy":"String","name:sv":"String","name_en":"String","name:hu":"String","name:hr":"String","class":"String","name:sq":"String","name:el":"String","name:ga":"String","name:en":"String","name":"String","name:gd":"String","name:ja_kana":"String","name:is":"String","name:th":"String","name:latin":"String","name:sr-Latn":"String","name:et":"String","name:es":"String"}}]
}
